STARLINK-1007           
1 44713U 19074A   23329.35222268  .00001777  00000+0  13823-3 0  9990
2 44713  53.0554 336.5953 0001540  82.5266 277.5898 15.06386495222847
STARLINK-1008           
1 44714U 19074B   23329.92816228  .00004747  00000+0  33731-3 0  9999
2 44714  53.0557 334.0113 0001599 114.3679 245.7477 15.06406052223100
STARLINK-1009           
1 44715U 19074C   23330.04979276  .00011374  00000+0  78075-3 0  9992
2 44715  53.0541 333.4661 0001512  92.9154 267.2008 15.06423359223118
STARLINK-1010           
1 44716U 19074D   23329.93553615  .00011398  00000+0  78274-3 0  9991
2 44716  53.0543 333.9748 0001278  95.2920 264.8215 15.06406122223086
STARLINK-1011           
1 44717U 19074E   23330.06638240  .00009050  00000+0  62529-3 0  9994
2 44717  53.0554 353.3877 0001487 104.4853 255.6301 15.06422689222841
STARLINK-1012           
1 44718U 19074F   23330.03873572  .00010130  00000+0  69752-3 0  9997
2 44718  53.0542 333.5132 0001449  97.3512 262.7641 15.06423253223118
STARLINK-1013           
1 44719U 19074G   23330.04611216  .00009031  00000+0  62415-3 0  9991
2 44719  53.0545 333.4832 0001511 118.0975 242.0167 15.06413109223115
STARLINK-1014           
1 44720U 19074H   23329.99725550  .00021569  00000+0  14619-2 0  9994
2 44720  53.0541 333.6924 0001302  82.8546 277.2591 15.06414069223114
STARLINK-1015           
1 44721U 19074J   23329.98713269  .00002068  00000+0  15765-3 0  9995
2 44721  53.0554 333.7462 0001526  82.2969 277.8193 15.06409155223101
STARLINK-1017           
1 44723U 19074L   23329.34209443  .00000463  00000+0  49992-4 0  9998
2 44723  53.0556 336.6351 0001835 138.3981 221.7148 15.06396986222849
STARLINK-1019           
1 44724U 19074M   23329.23889258  .00000799  00000+0  72549-4 0  9991
2 44724  53.0546 337.1004 0002241 128.2018 231.9173 15.06395576222824
STARLINK-1020           
1 44725U 19074N   23329.37712031  .00003169  00000+0  23156-3 0  9994
2 44725  53.0557 356.4863 0001543  85.5947 274.5218 15.06396501222567
STARLINK-1021           
1 44726U 19074P   23329.30157522  .00013414  00000+0  91744-3 0  9998
2 44726  53.0541 336.8247 0001585  78.4682 281.6485 15.06409431222834
STARLINK-1024           
1 44729U 19074S   23330.04682471  .00118440  00000+0  13917-2 0  9990
2 44729  53.0148 238.1012 0003370  26.8818 333.2368 15.60595078224408
STARLINK-1027           
1 44732U 19074V   23330.09587217  .00008354  00000+0  57881-3 0  9992
2 44732  53.0563 353.2609 0001934 105.9574 254.1628 15.06417380222841
STARLINK-1028           
1 44733U 19074W   23329.96131601  .00003482  00000+0  25238-3 0  9997
2 44733  53.0565 333.8526 0001769 116.1979 243.9192 15.06423724223106
STARLINK-1029           
1 44734U 19074X   23330.10874866  .00046730  00000+0  31294-2 0  9994
2 44734  53.0539 253.1986 0001178  95.1437 264.9687 15.06470569224226
STARLINK-1030           
1 44735U 19074Y   23330.10324055  .00008256  00000+0  57232-3 0  9997
2 44735  53.0558 353.2227 0001423 110.3476 249.7666 15.06413485222842
STARLINK-1031           
1 44736U 19074Z   23330.05164041  .00003965  00000+0  28489-3 0  9993
2 44736  53.0541 353.4561 0001417  94.6408 265.4743 15.06408322222845
STARLINK-1032           
1 44737U 19074AA  23329.39923194  .00005447  00000+0  38435-3 0  9990
2 44737  53.0544 356.3854 0001566  98.8539 261.2627 15.06394532222574
STARLINK-1035           
1 44740U 19074AD  23330.05901825  .00010878  00000+0  74775-3 0  9997
2 44740  53.0548 353.4220 0001495 108.1913 251.9239 15.06416115222846
STARLINK-1036           
1 44741U 19074AE  23330.07007557  .00010943  00000+0  75206-3 0  9992
2 44741  53.0552 353.3722 0001538 109.7096 250.4059 15.06417929222843
STARLINK-1038           
1 44743U 19074AG  23330.11983351  .00015152  00000+0  10331-2 0  9998
2 44743  53.0561  13.1452 0001481  85.9861 274.1297 15.06428140222572
STARLINK-1039           
1 44744U 19074AH  23329.40108183  .00004057  00000+0  29114-3 0  9993
2 44744  53.0553  16.3761 0001275  95.0282 265.0852 15.06397610222294
STARLINK-1041           
1 44746U 19074AK  23330.11614978  .00011138  00000+0  76504-3 0  9992
2 44746  53.0554  13.1654 0001401  97.7994 262.3154 15.06420116222577
STARLINK-1042           
1 44747U 19074AL  23330.14562698  .00008245  00000+0  57140-3 0  9997
2 44747  53.0559  13.0312 0001362 102.2633 257.8509 15.06424180222580
STARLINK-1043           
1 44748U 19074AM  23330.10877532  .00017030  00000+0  11585-2 0  9994
2 44748  53.0545  13.1990 0001463 108.9541 251.1606 15.06428881222578
STARLINK-1046           
1 44751U 19074AQ  23330.12351726  .00012135  00000+0  83151-3 0  9992
2 44751  53.0558  13.1327 0001558  72.9074 287.2085 15.06427952222575
STARLINK-1047           
1 44752U 19074AR  23330.07743214  .00004046  00000+0  29024-3 0  9995
2 44752  53.0559 353.3390 0001553 114.5368 245.5783 15.06413915222846
STARLINK-1048           
1 44753U 19074AS  23329.28681373  .00008769  00000+0  60661-3 0  9992
2 44753  53.0540 336.8897 0001412 100.3625 259.7523 15.06415999222830
STARLINK-1052           
1 44757U 19074AW  23330.07367191  .00037341  00000+0  22157-2 0  9999
2 44757  53.0557 351.8182 0002140   0.7200 359.3794 15.11009823222868
STARLINK-1053           
1 44758U 19074AX  23329.97240785  .00016260  00000+0  11072-2 0  9997
2 44758  53.0554  13.8984 0001433 105.1864 254.9284 15.06426450222554
STARLINK-1054           
1 44759U 19074AY  23329.42321597  .00013042  00000+0  89261-3 0  9990
2 44759  53.0557  16.2753 0001591  79.1922 280.9246 15.06408762219941
STARLINK-1055           
1 44760U 19074AZ  23330.05230949  .00026695  00000+0  11571-2 0  9999
2 44760  53.0386 351.5830 0001748  12.6508 347.4531 15.22212468222887
STARLINK-1056           
1 44761U 19074BA  23330.08297323  .00017368  00000+0  11810-2 0  9995
2 44761  53.0549  13.3135 0001477  89.5542 270.5616 15.06430475222578
STARLINK-1057           
1 44762U 19074BB  23329.95212485  .00023174  00000+0  15689-2 0  9996
2 44762  53.0550 353.9006 0001516 113.0764 247.0385 15.06415526222824
STARLINK-1058           
1 44763U 19074BC  23330.13830001  .00017021  00000+0  11577-2 0  9995
2 44763  53.0543  13.4124 0001405  97.7199 262.3949 15.06435520222577
STARLINK-1059           
1 44764U 19074BD  23329.96437041  .00030425  00000+0  11649-2 0  9995
2 44764  53.0833 316.8421 0003448 284.4542  75.6073 15.26317714223363
STARLINK-1060           
1 44765U 19074BE  23330.09956598  .00007540  00000+0  52464-3 0  9998
2 44765  53.0548 353.2407 0001672 104.0721 256.0454 15.06393580222842
STARLINK-1061           
1 44766U 19074BF  23330.16405999  .00031807  00000+0  21417-2 0  9997
2 44766  53.0557  12.9514 0001533  88.8194 271.2971 15.06450532222585
STARLINK-1062           
1 44767U 19074BG  23329.95670411  .00008445  00000+0  58491-3 0  9991
2 44767  53.0548  13.8686 0001570  80.7771 279.3395 15.06417769222550
STARLINK-1063           
1 44768U 19074BH  23329.97976468  .00013208  00000+0  90329-3 0  9994
2 44768  53.0554  13.7794 0001288  89.1279 270.9858 15.06426665222555
STARLINK-1067           
1 44771U 19074BL  23329.96871189  .00011900  00000+0  81601-3 0  9991
2 44771  53.0549  13.8287 0001428  95.2030 264.9122 15.06419129222554
STARLINK-1068           
1 44772U 19074BM  23330.09217969  .00014437  00000+0  98548-3 0  9994
2 44772  53.0559 353.2726 0001446 105.3845 254.7304 15.06423217222846
STARLINK-1073           
1 44914U 20001A   23329.84338943  .00002020  00000+0  15446-3 0  9992
2 44914  53.0553 134.3910 0001475  99.0263 261.0893 15.06398658214010
STARLINK-1084           
1 44915U 20001B   23329.87288514  .00003080  00000+0  22555-3 0  9990
2 44915  53.0531 134.2559 0001375  91.2807 268.8339 15.06400928214027
STARLINK-1098           
1 44917U 20001D   23329.74387154  .00002416  00000+0  18106-3 0  9997
2 44917  53.0552 134.8374 0001356  78.5327 281.5814 15.06399290214004
STARLINK-1099           
1 44918U 20001E   23329.67472229  .00043159  00000+0  92304-3 0  9999
2 44918  53.0546 129.3725 0001292 358.7549   1.3454 15.44410911214818
STARLINK-1102           
1 44920U 20001G   23329.76091058  .00019151  00000+0  76167-3 0  9993
2 44920  53.0518 106.0663 0003638  82.0411 278.0999 15.25316417214412
STARLINK-1103           
1 44921U 20001H   23329.85349503  .00002381  00000+0  17865-3 0  9992
2 44921  53.0544 134.2974 0001506  99.8936 260.2223 15.06402846213996
STARLINK-1104           
1 44922U 20001J   23329.89130493  .00001861  00000+0  14380-3 0  9994
2 44922  53.0547 134.1746 0001524  90.0144 270.1019 15.06401027214028
STARLINK-1106           
1 44923U 20001K   23329.70673746  .00015488  00000+0  69524-3 0  9998
2 44923  53.0601 116.0810 0000341 112.1984 247.9047 15.21367684214261
STARLINK-1111           
1 44924U 20001L   23329.83970903  .00003539  00000+0  25633-3 0  9995
2 44924  53.0552 134.4278 0001411  95.0649 265.0501 15.06403099214018
STARLINK-1112           
1 44925U 20001M   23329.85444814  .00003658  00000+0  26434-3 0  9997
2 44925  53.0527 134.3410 0001424  97.7100 262.4051 15.06403920214017
STARLINK-1113           
1 44926U 20001N   23329.85077004  .00002087  00000+0  15897-3 0  9997
2 44926  53.0547 134.4447 0001474  92.7756 267.3402 15.06401229214696
STARLINK-1114           
1 44927U 20001P   23329.86550960  .00002012  00000+0  15394-3 0  9996
2 44927  53.0546 134.2920 0001296  89.8618 270.2520 15.06398760214022
STARLINK-1119           
1 44928U 20001Q   23329.85135268  .00001599  00000+0  62949-4 0  9994
2 44928  53.0539 128.6272 0001214  80.2246 279.8891 15.31879843214103
STARLINK-1121           
1 44929U 20001R   23329.71876760  .00018066  00000+0  11398-3 0  9997
2 44929  53.0486 124.3184 0001992  45.8960 314.2223 15.76759160214148
STARLINK-1123           
1 44930U 20001S   23329.88024824  .00002390  00000+0  17924-3 0  9997
2 44930  53.0534 134.2243 0001374  86.3893 273.7253 15.06402938214029
STARLINK-1128           
